NORAD_CAT_ID,OBJECT_NAME,OBJECT_TYPE,EPOCH,MEAN_MOTION,ECCENTRICITY,INCLINATION,RA_OF_ASC_NODE,ARG_OF_PERICENTER,MEAN_ANOMALY,BSTAR,MEAN_MOTION_DOT,MEAN_MOTION_DDOT,TLE_LINE0,TLE_LINE1,TLE_LINE2,SEMIMAJOR_AXIS,PERIOD,APOGEE,PERIGEE,DECAYED
56775.0,STARLINK-6292,PAYLOAD,2023-08-01 11:48:03,15.69925198,0.0003034,69.9983,238.3793,265.1097,94.9753,1.4535e-05,1.535e-05,0.0,0 STARLINK-6292,1 56775U 23078J   23213.49170289  .00001535  00000-0  14535-4 0  9997,2 56775  69.9983 238.3793 0003034 265.1097  94.9753 15.69925198 10071,6737.248,91.724,361.157,357.069,0.0
56775.0,STARLINK-6292,PAYLOAD,2023-08-02 13:47:50,15.69925332,0.0003416,69.9976,235.3327,262.3441,97.7367,1.6446e-05,1.765e-05,0.0,0 STARLINK-6292,1 56775U 23078J   23214.57488525  .00001765  00000-0  16446-4 0  9990,2 56775  69.9976 235.3327 0003416 262.3441  97.7367 15.69925332 10240,6737.248,91.724,361.414,356.811,0.0
56775.0,STARLINK-6292,PAYLOAD,2023-08-03 12:44:07,15.6991602,0.0003438,69.9976,232.6448,269.3963,90.6839,6.4629e-06,5.64e-06,0.0,0 STARLINK-6292,1 56775U 23078J   23215.53064156  .00000564  00000-0  64629-5 0  9990,2 56775  69.9976 232.6448 0003438 269.3963  90.6839 15.69916020 10390,6737.274,91.725,361.456,356.823,0.0
56775.0,STARLINK-6292,PAYLOAD,2023-08-04 02:29:53,15.69926742,0.000373,69.9968,231.0312,267.6872,92.3897,1.2602e-05,1.303e-05,0.0,0 STARLINK-6292,1 56775U 23078J   23216.10408565  .00001303  00000-0  12602-4 0  9995,2 56775  69.9968 231.0312 0003730 267.6872  92.3897 15.69926742 10484,6737.244,91.724,361.622,356.596,0.0
56775.0,STARLINK-6292,PAYLOAD,2023-08-04 13:12:09,15.69910583,0.0003992,69.9978,229.7782,259.7443,100.3302,-1.951e-05,-2.557e-05,0.0,0 STARLINK-6292,1 56775U 23078J   23216.55010997 -.00002557  00000-0 -19510-4 0  9991,2 56775  69.9978 229.7782 0003992 259.7443 100.3302 15.69910583 10551,6737.29,91.725,361.844,356.465,0.0
56775.0,STARLINK-6292,PAYLOAD,2023-08-05 02:57:54,15.69948396,0.0003433,69.9987,228.1663,264.2443,95.8362,5.828e-05,6.808e-05,0.0,0 STARLINK-6292,1 56775U 23078J   23217.12354432  .00006808  00000-0  58280-4 0  9998,2 56775  69.9987 228.1663 0003433 264.2443  95.8362 15.69948396 10640,6737.182,91.723,361.36,356.734,0.0
56775.0,STARLINK-6292,PAYLOAD,2023-08-05 10:36:41,15.69913923,0.0003598,69.9986,227.2716,277.5551,82.5236,-7.7868e-06,-1.149e-05,0.0,0 STARLINK-6292,1 56775U 23078J   23217.44214243 -.00001149  00000-0 -77868-5 0  9997,2 56775  69.9986 227.2716 0003598 277.5551  82.5236 15.69913923 10693,6737.28,91.725,361.569,356.721,0.0
56775.0,STARLINK-6292,PAYLOAD,2023-08-06 01:54:14,15.69876698,0.0003632,69.9985,225.4797,276.1306,83.9476,-7.4424e-05,-9.135e-05,0.0,0 STARLINK-6292,1 56775U 23078J   23218.07933264 -.00009135  00000-0 -74424-4 0  9995,2 56775  69.9985 225.4797 0003632 276.1306  83.9476 15.69876698 10792,6737.387,91.727,361.699,356.805,0.0
56775.0,STARLINK-6292,PAYLOAD,2023-08-06 11:04:44,15.69916661,0.0003058,69.9986,224.4047,283.7696,76.3159,3.266e-05,3.715e-05,0.0,0 STARLINK-6292,1 56775U 23078J   23218.46162310  .00003715  00000-0  32660-4 0  9996,2 56775  69.9986 224.4047 0003058 283.7696  76.3159 15.69916661 10854,6737.272,91.725,361.198,357.077,0.0
56775.0,STARLINK-6292,PAYLOAD,2023-08-06 18:43:28,15.69939393,0.0003641,69.9986,223.5088,270.5764,89.5015,7.6777e-05,9.035e-05,0.0,0 STARLINK-6292,1 56775U 23078J   23218.78019546  .00009035  00000-0  76777-4 0  9991,2 56775  69.9986 223.5088 0003641 270.5764  89.5015 15.69939393 10907,6737.207,91.723,361.525,356.619,0.0
56775.0,STARLINK-6292,PAYLOAD,2023-08-07 02:22:14,15.69975024,0.0003537,69.9995,222.6132,271.991,88.088,0.00037499,0.00045217,0.0,0 STARLINK-6292,1 56775U 23078J   23219.09877969  .00045217  00000-0  37499-3 0  9996,2 56775  69.9995 222.6132 0003537 271.9910  88.0880 15.69975024 10959,6737.105,91.721,361.353,356.588,0.0
56775.0,STARLINK-6292,PAYLOAD,2023-08-07 10:00:59,15.69950269,0.0003454,69.9998,221.7176,275.0878,84.9923,-7.68e-05,-9.447e-05,0.0,0 STARLINK-6292,1 56775U 23078J   23219.41735840 -.00009447  00000-0 -76800-4 0  9990,2 56775  69.9998 221.7176 0003454 275.0878  84.9923 15.69950269 11000,6737.176,91.723,361.368,356.714,0.0
56775.0,STARLINK-6292,PAYLOAD,2023-08-08 10:29:01,15.69969131,0.0004782,69.9997,218.8513,281.5001,78.5657,0.00048164,0.00058229,0.0,0 STARLINK-6292,1 56775U 23078J   23220.43682004  .00058229  00000-0  48164-3 0  9998,2 56775  69.9997 218.8513 0004782 281.5001  78.5657 15.69969131 11164,6737.122,91.722,362.209,355.766,0.0
56775.0,STARLINK-6292,PAYLOAD,2023-08-08 12:00:46,15.69937001,0.0003909,69.9996,218.6721,264.5643,95.5107,0.00016936,0.00020213,0.0,0 STARLINK-6292,1 56775U 23078J   23220.50053842  .00020213  00000-0  16936-3 0  9992,2 56775  69.9996 218.6721 0003909 264.5643  95.5107 15.69937001 11176,6737.214,91.723,361.713,356.446,0.0
56775.0,STARLINK-6292,PAYLOAD,2023-08-09 01:46:33,15.69945744,0.0003622,69.9996,217.0597,267.0095,93.0686,0.00057596,0.00069684,0.0,0 STARLINK-6292,1 56775U 23078J   23221.07399499  .00069684  00000-0  57596-3 0  9998,2 56775  69.9996 217.0597 0003622 267.0095  93.0686 15.69945744 11269,6737.189,91.723,361.494,356.614,0.0
56775.0,STARLINK-6292,PAYLOAD,2023-08-09 09:25:18,15.69947417,0.0003822,69.9997,216.1641,268.4306,91.6452,0.00034508,0.00041529,0.0,0 STARLINK-6292,1 56775U 23078J   23221.39257636  .00041529  00000-0  34508-3 0  9995,2 56775  69.9997 216.1641 0003822 268.4306  91.6452 15.69947417 11312,6737.184,91.723,361.624,356.474,0.0
56775.0,STARLINK-6292,PAYLOAD,2023-08-09 17:04:04,15.69946051,0.0003662,69.9997,215.2693,267.5687,92.509,0.00017731,0.00021181,0.0,0 STARLINK-6292,1 56775U 23078J   23221.71115939  .00021181  00000-0  17731-3 0  9991,2 56775  69.9997 215.2693 0003662 267.5687  92.5090 15.69946051 11369,6737.188,91.723,361.521,356.586,0.0
56775.0,STARLINK-6292,PAYLOAD,2023-08-10 02:14:34,15.699358,0.0003662,69.9997,214.1944,266.5841,93.4936,0.00011792,0.00013997,0.0,0 STARLINK-6292,1 56775U 23078J   23222.09345935  .00013997  00000-0  11792-3 0  9991,2 56775  69.9997 214.1944 0003662 266.5841  93.4936 15.69935800 11423,6737.218,91.723,361.55,356.616,0.0
56775.0,STARLINK-6292,PAYLOAD,2023-08-10 09:53:20,15.69918183,0.000277,70.0,213.2987,275.5651,84.5229,6.7927e-05,7.96e-05,0.0,0 STARLINK-6292,1 56775U 23078J   23222.41204830  .00007960  00000-0  67927-4 0  9990,2 56775  70.0000 213.2987 0002770 275.5651  84.5229 15.69918183 11472,6737.268,91.725,360.999,357.267,0.0
56775.0,STARLINK-6292,PAYLOAD,2023-08-11 16:28:23,15.69920752,0.0003423,69.9971,209.716,266.8547,93.2257,-1.0333e-05,-1.455e-05,0.0,0 STARLINK-6292,1 56775U 23078J   23223.68638076 -.00001455  00000-0 -10333-4 0  9997,2 56775  69.9971 209.7160 0003423 266.8547  93.2257 15.69920752 11677,6737.261,91.724,361.432,356.82,0.0
56775.0,STARLINK-6292,PAYLOAD,2023-08-12 01:38:53,15.69931453,0.0003373,69.9987,208.6405,266.9664,93.1146,2.3942e-05,2.668e-05,0.0,0 STARLINK-6292,1 56775U 23078J   23224.06867642  .00002668  00000-0  23942-4 0  9998,2 56775  69.9987 208.6405 0003373 266.9664  93.1146 15.69931453 11732,6737.23,91.724,361.368,356.823,0.0
56775.0,STARLINK-6292,PAYLOAD,2023-08-12 09:17:40,15.69905902,0.0002966,69.9992,207.7446,274.6028,85.4829,-3.5135e-05,-4.431e-05,0.0,0 STARLINK-6292,1 56775U 23078J   23224.38727033 -.00004431  00000-0 -35135-4 0  9991,2 56775  69.9992 207.7446 0002966 274.6028  85.4829 15.69905902 11787,6737.303,91.725,361.166,357.17,0.0
56775.0,STARLINK-6292,PAYLOAD,2023-08-12 23:03:25,15.6991535,0.0004423,69.9965,206.1318,257.8226,102.2474,-1.3144e-05,-1.793e-05,0.0,0 STARLINK-6292,1 56775U 23078J   23224.96071495 -.00001793  00000-0 -13144-4 0  9993,2 56775  69.9965 206.1318 0004423 257.8226 102.2474 15.69915350 11873,6737.276,91.725,362.121,356.161,0.0
56775.0,STARLINK-6292,PAYLOAD,2023-08-13 08:13:56,15.69924411,0.000336,69.9978,205.0574,268.3727,91.7084,2.2099e-05,2.445e-05,0.0,0 STARLINK-6292,1 56775U 23078J   23225.34301584  .00002445  00000-0  22099-4 0  9993,2 56775  69.9978 205.0574 0003360 268.3727  91.7084 15.69924411 11935,6737.25,91.724,361.379,356.852,0.0
56775.0,STARLINK-6292,PAYLOAD,2023-08-13 15:52:41,15.69948041,0.0003664,69.9987,204.1623,270.0769,90.0007,7.6918e-05,9.055e-05,0.0,0 STARLINK-6292,1 56775U 23078J   23225.66159046  .00009055  00000-0  76918-4 0  9995,2 56775  69.9987 204.1623 0003664 270.0769  90.0007 15.69948041 11980,6737.183,91.723,361.516,356.579,0.0
56775.0,STARLINK-6292,PAYLOAD,2023-08-14 01:03:12,15.69914949,0.0004655,69.9978,203.0865,290.7677,69.3019,-2.8847e-05,-3.68e-05,0.0,0 STARLINK-6292,1 56775U 23078J   23226.04389671 -.00003680  00000-0 -28847-4 0  9995,2 56775  69.9978 203.0865 0004655 290.7677  69.3019 15.69914949 12044,6737.277,91.725,362.279,356.006,0.0
56775.0,STARLINK-6292,PAYLOAD,2023-08-14 08:41:57,15.6991546,0.0004426,69.9987,202.1906,270.8544,89.2145,-6.1928e-05,-7.652e-05,0.0,0 STARLINK-6292,1 56775U 23078J   23226.36247577 -.00007652  00000-0 -61928-4 0  9998,2 56775  69.9987 202.1906 0004426 270.8544  89.2145 15.69915460 12093,6737.276,91.725,362.123,356.159,0.0
56775.0,STARLINK-6292,PAYLOAD,2023-08-14 23:59:29,15.69933743,0.0003525,69.9993,200.3997,264.7906,95.2887,0.00014387,0.00017129,0.0,0 STARLINK-6292,1 56775U 23078J   23226.99964728  .00017129  00000-0  14387-3 0  9995,2 56775  69.9993 200.3997 0003525 264.7906  95.2887 15.69933743 12198,6737.224,91.724,361.463,356.714,0.0
56775.0,STARLINK-6292,PAYLOAD,2023-08-15 07:38:15,15.69931157,0.0003588,69.9982,199.503,266.6936,93.3849,0.00011351,0.00013462,0.0,0 STARLINK-6292,1 56775U 23078J   23227.31823223  .00013462  00000-0  11351-3 0  9990,2 56775  69.9982 199.5030 0003588 266.6936  93.3849 15.69931157 12246,6737.231,91.724,361.513,356.679,0.0
56775.0,STARLINK-6292,PAYLOAD,2023-08-15 15:17:01,15.69924771,0.0003359,69.9984,198.6093,267.1212,92.9599,4.6095e-05,5.333e-05,0.0,0 STARLINK-6292,1 56775U 23078J   23227.63681729  .00005333  00000-0  46095-4 0  9990,2 56775  69.9984 198.6093 0003359 267.1212  92.9599 15.69924771 12292,6737.249,91.724,361.377,356.851,0.0
